MALLIGYONG-1            
1 58400U 23179A   24083.84696098  .00010707  00000+0  47752-3 0  9998
2 58400  97.4162 331.9714 0009127 191.1145 168.9891 15.21544388 18740
